[
    {
        "Altitude(m)": 569308.8363323061,
        "Argument of Periapsis(deg)": 0.0,
        "Eccentricity": 0.0,
        "Inclination(deg)": 53.0,
        "Latitude(deg)": -46.77339095177339,
        "Longitude(deg)": -7.844717431624642,
        "Mean Anomaly(deg)": -65.45450000000001,
        "RAAN(deg)": 145.0,
        "Satellite Name": "Starlink Shell 1 656",
        "Satellite Number": 656,
        "Semi-Major Axis(m)": 6931778.249405717,
        "Time(s)": 0
    },
    {
        "Altitude(m)": 569184.7265650511,
        "Argument of Periapsis(deg)": 0.00034857847951123687,
        "Eccentricity": 0.0,
        "Inclination(deg)": 53.0,
        "Latitude(deg)": -46.469001152814506,
        "Longitude(deg)": -7.092997004742132,
        "Mean Anomaly(deg)": -64.8276687964433,
        "RAAN(deg)": 144.99948122992254,
        "Satellite Name": "Starlink Shell 1 656",
        "Satellite Number": 656,
        "Semi-Major Axis(m)": 6931778.249405717,
        "Time(s)": 10
    },
    {
        "Altitude(m)": 569058.1917477031,
        "Argument of Periapsis(deg)": 0.0006971569590224737,
        "Eccentricity": 0.0,
        "Inclination(deg)": 53.0,
        "Latitude(deg)": -46.15915433273835,
        "Longitude(deg)": -6.350126435073683,
        "Mean Anomaly(deg)": -64.20083759288653,
        "RAAN(deg)": 144.99896245984505,
        "Satellite Name": "Starlink Shell 1 656",
        "Satellite Number": 656,
        "Semi-Major Axis(m)": 6931778.249405717,
        "Time(s)": 20
    },
    {
        "Altitude(m)": 568929.2818511757,
        "Argument of Periapsis(deg)": 0.0010457354385337105,
        "Eccentricity": 0.0,
        "Inclination(deg)": 53.0,
        "Latitude(deg)": -45.843967836983666,
        "Longitude(deg)": -5.616064156074131,
        "Mean Anomaly(deg)": -63.57400638932983,
        "RAAN(deg)": 144.9984436897676,
        "Satellite Name": "Starlink Shell 1 656",
        "Satellite Number": 656,
        "Semi-Major Axis(m)": 6931778.249405717,
        "Time(s)": 30
    },
    {
        "Altitude(m)": 568798.0477546427,
        "Argument of Periapsis(deg)": 0.0013943139180449475,
        "Eccentricity": 0.0,
        "Inclination(deg)": 53.0,
        "Latitude(deg)": -45.52355773905091,
        "Longitude(deg)": -4.890760252603423,
        "Mean Anomaly(deg)": -62.94717518577308,
        "RAAN(deg)": 144.99792491969012,
        "Satellite Name": "Starlink Shell 1 656",
        "Satellite Number": 656,
        "Semi-Major Axis(m)": 6931778.249405717,
        "Time(s)": 40
    },
    {
        "Altitude(m)": 568664.5412231918,
        "Argument of Periapsis(deg)": 0.0017428923975561844,
        "Eccentricity": 0.0,
        "Inclination(deg)": 53.0,
        "Latitude(deg)": -45.19803875143918,
        "Longitude(deg)": -4.174157988321765,
        "Mean Anomaly(deg)": -62.3203439822164,
        "RAAN(deg)": 144.99740614961266,
        "Satellite Name": "Starlink Shell 1 656",
        "Satellite Number": 656,
        "Semi-Major Axis(m)": 6931778.249405717,
        "Time(s)": 50
    },
    {
        "Altitude(m)": 568528.814885136,
        "Argument of Periapsis(deg)": 0.002091470877067421,
        "Eccentricity": 0.0,
        "Inclination(deg)": 53.0,
        "Latitude(deg)": -44.867524145724886,
        "Longitude(deg)": -3.466193808002448,
        "Mean Anomaly(deg)": -61.69351277865976,
        "RAAN(deg)": 144.99688737953517,
        "Satellite Name": "Starlink Shell 1 656",
        "Satellite Number": 656,
        "Semi-Major Axis(m)": 6931778.249405717,
        "Time(s)": 60
    },
    {
        "Altitude(m)": 568390.9222088838,
        "Argument of Periapsis(deg)": 0.0024400493565786582,
        "Eccentricity": 0.0,
        "Inclination(deg)": 53.0,
        "Latitude(deg)": -44.532125681402384,
        "Longitude(deg)": -2.7667973261715226,
        "Mean Anomaly(deg)": -61.066681575102955,
        "RAAN(deg)": 144.9963686094577,
        "Satellite Name": "Starlink Shell 1 656",
        "Satellite Number": 656,
        "Semi-Major Axis(m)": 6931778.249405717,
        "Time(s)": 70
    },
    {
        "Altitude(m)": 568250.9174794706,
        "Argument of Periapsis(deg)": 0.002788627836089895,
        "Eccentricity": 0.0,
        "Inclination(deg)": 53.0,
        "Latitude(deg)": -44.19195354309075,
        "Longitude(deg)": -2.0758928137153654,
        "Mean Anomaly(deg)": -60.43985037154627,
        "RAAN(deg)": 144.9958498393802,
        "Satellite Name": "Starlink Shell 1 656",
        "Satellite Number": 656,
        "Semi-Major Axis(m)": 6931778.249405717,
        "Time(s)": 80
    },
    {
        "Altitude(m)": 568108.855774664,
        "Argument of Periapsis(deg)": 0.0031372063156011316,
        "Eccentricity": 0.0,
        "Inclination(deg)": 53.0,
        "Latitude(deg)": -43.847116285691364,
        "Longitude(deg)": -1.3933991556916183,
        "Mean Anomaly(deg)": -59.813019167989566,
        "RAAN(deg)": 144.99533106930275,
        "Satellite Name": "Starlink Shell 1 656",
        "Satellite Number": 656,
        "Semi-Major Axis(m)": 6931778.249405717,
        "Time(s)": 90
    },
    {
        "Altitude(m)": 567964.7929407627,
        "Argument of Periapsis(deg)": 0.0034857847951123688,
        "Eccentricity": 0.0,
        "Inclination(deg)": 53.0,
        "Latitude(deg)": -43.49772078708621,
        "Longitude(deg)": -0.7192297924103972,
        "Mean Anomaly(deg)": -59.18618796443282,
        "RAAN(deg)": 144.9948122992253,
        "Satellite Name": "Starlink Shell 1 656",
        "Satellite Number": 656,
        "Semi-Major Axis(m)": 6931778.249405717,
        "Time(s)": 100
    },
    {
        "Altitude(m)": 567818.7855679985,
        "Argument of Periapsis(deg)": 0.003834363274623606,
        "Eccentricity": 0.0,
        "Inclination(deg)": 53.0,
        "Latitude(deg)": -43.14387220796208,
        "Longitude(deg)": -0.05329415603483368,
        "Mean Anomaly(deg)": -58.55935676087614,
        "RAAN(deg)": 144.99429352914782,
        "Satellite Name": "Starlink Shell 1 656",
        "Satellite Number": 656,
        "Semi-Major Axis(m)": 6931778.249405717,
        "Time(s)": 110
    },
    {
        "Altitude(m)": 567670.8909656074,
        "Argument of Periapsis(deg)": 0.004182941754134842,
        "Eccentricity": 0.0,
        "Inclination(deg)": 53.0,
        "Latitude(deg)": -42.78567395833838,
        "Longitude(deg)": 0.6045024234996863,
        "Mean Anomaly(deg)": -57.932525557319394,
        "RAAN(deg)": 144.99377475907033,
        "Satellite Name": "Starlink Shell 1 656",
        "Satellite Number": 656,
        "Semi-Major Axis(m)": 6931778.249405717,
        "Time(s)": 120
    },
    {
        "Altitude(m)": 567521.167136571,
        "Argument of Periapsis(deg)": 0.004531520233646079,
        "Eccentricity": 0.0,
        "Inclination(deg)": 53.0,
        "Latitude(deg)": -42.423227670391306,
        "Longitude(deg)": 1.254258830664636,
        "Mean Anomaly(deg)": -57.305694353762696,
        "RAAN(deg)": 144.99325598899287,
        "Satellite Name": "Starlink Shell 1 656",
        "Satellite Number": 656,
        "Semi-Major Axis(m)": 6931778.249405717,
        "Time(s)": 130
    },
    {
        "Altitude(m)": 567369.6727520279,
        "Argument of Periapsis(deg)": 0.0048800987131573164,
        "Eccentricity": 0.0,
        "Inclination(deg)": 53.0,
        "Latitude(deg)": -42.0566331771689,
        "Longitude(deg)": 1.896076781902298,
        "Mean Anomaly(deg)": -56.67886315020596,
        "RAAN(deg)": 144.99273721891538,
        "Satellite Name": "Starlink Shell 1 656",
        "Satellite Number": 656,
        "Semi-Major Axis(m)": 6931778.249405717,
        "Time(s)": 140
    },
    {
        "Altitude(m)": 567216.467125401,
        "Argument of Periapsis(deg)": 0.005228677192668553,
        "Eccentricity": 0.0,
        "Inclination(deg)": 53.0,
        "Latitude(deg)": -41.685988496796675,
        "Longitude(deg)": 2.5300609743457274,
        "Mean Anomaly(deg)": -56.052031946649215,
        "RAAN(deg)": 144.99221844883792,
        "Satellite Name": "Starlink Shell 1 656",
        "Satellite Number": 656,
        "Semi-Major Axis(m)": 6931778.249405717,
        "Time(s)": 150
    },
    {
        "Altitude(m)": 567061.610186177,
        "Argument of Periapsis(deg)": 0.00557725567217979,
        "Eccentricity": 0.0,
        "Inclination(deg)": 53.0,
        "Latitude(deg)": -41.31138982178779,
        "Longitude(deg)": 3.1563192527413375,
        "Mean Anomaly(deg)": -55.42520074309256,
        "RAAN(deg)": 144.99169967876045,
        "Satellite Name": "Starlink Shell 1 656",
        "Satellite Number": 656,
        "Semi-Major Axis(m)": 6931778.249405717,
        "Time(s)": 160
    },
    {
        "Altitude(m)": 566905.1624534285,
        "Argument of Periapsis(deg)": 0.0059258341516910265,
        "Eccentricity": 0.0,
        "Inclination(deg)": 53.0,
        "Latitude(deg)": -40.932931513086025,
        "Longitude(deg)": 3.774961281518908,
        "Mean Anomaly(deg)": -54.79836953953579,
        "RAAN(deg)": 144.991180908683,
        "Satellite Name": "Starlink Shell 1 656",
        "Satellite Number": 656,
        "Semi-Major Axis(m)": 6931778.249405717,
        "Time(s)": 170
    },
    {
        "Altitude(m)": 566747.1850090638,
        "Argument of Periapsis(deg)": 0.006274412631202263,
        "Eccentricity": 0.0,
        "Inclination(deg)": 53.0,
        "Latitude(deg)": -40.550706098474365,
        "Longitude(deg)": 4.386098747488736,
        "Mean Anomaly(deg)": -54.17153833597914,
        "RAAN(deg)": 144.9906621386055,
        "Satellite Name": "Starlink Shell 1 656",
        "Satellite Number": 656,
        "Semi-Major Axis(m)": 6931778.249405717,
        "Time(s)": 180
    }
]